{
    "links": {
        "self": "http://www.neowsapp.com/rest/v1/neo/54017056?api_key=iIulBulltgU6a56xZRHN4H3l9WmuAYTsLGpBGhQ2"
    },
    "id": "54017056",
    "neo_reference_id": "54017056",
    "name": "(2020 KC)",
    "designation": "2020 KC",
    "nasa_jpl_url": "http://ssd.jpl.nasa.gov/sbdb.cgi?sstr=54017056",
    "absolute_magnitude_h": 24.538,
    "estimated_diameter": {
        "kilometers": {
            "estimated_diameter_min": 0.0328817541,
            "estimated_diameter_max": 0.0735258373
        },
        "meters": {
            "estimated_diameter_min": 32.8817540531,
            "estimated_diameter_max": 73.5258372821
        },
        "miles": {
            "estimated_diameter_min": 0.0204317684,
            "estimated_diameter_max": 0.045686823
        },
        "feet": {
            "estimated_diameter_min": 107.8797739675,
            "estimated_diameter_max": 241.2265079885
        }
    },
    "is_potentially_hazardous_asteroid": false,
    "close_approach_data": [
        {
            "close_approach_date": "2020-05-23",
            "close_approach_date_full": "2020-May-23 13:36",
            "epoch_date_close_approach": 1590240960000,
            "relative_velocity": {
                "kilometers_per_second": "7.1241940436",
                "kilometers_per_hour": "25647.0985570778",
                "miles_per_hour": "15936.109656202"
            },
            "miss_distance": {
                "astronomical": "0.0797135355",
                "lunar": "31.0085653095",
                "kilometers": "11924975.120969385",
                "miles": "7409835.941512113"
            },
            "orbiting_body": "Earth"
        }
    ],
    "orbital_data": {
        "orbit_id": "7",
        "orbit_determination_date": "2020-05-31 06:03:26",
        "first_observation_date": "2020-05-14",
        "last_observation_date": "2020-05-30",
        "data_arc_in_days": 16,
        "observations_used": 39,
        "orbit_uncertainty": "8",
        "minimum_orbit_intersection": ".0675858",
        "jupiter_tisserand_invariant": "3.308",
        "epoch_osculation": "2458988.5",
        "eccentricity": ".5499444477297484",
        "semi_major_axis": "2.389429564334018",
        "inclination": "3.225525697807553",
        "ascending_node_longitude": "69.00491321229386",
        "orbital_period": "1349.086437246407",
        "perihelion_distance": "1.075376042187213",
        "perihelion_argument": "160.1253876297991",
        "aphelion_distance": "3.703483086480822",
        "perihelion_time": "2458982.597063092889",
        "mean_anomaly": "1.575182455245322",
        "mean_motion": ".2668472457070939",
        "equinox": "J2000",
        "orbit_class": {
            "orbit_class_type": "AMO",
            "orbit_class_description": "Near-Earth asteroid orbits similar to that of 1221 Amor",
            "orbit_class_range": "1.017 AU < q (perihelion) < 1.3 AU"
        }
    },
    "is_sentry_object": false
}